<?xml version="1.0" encoding="UTF-8"?>
<kml xmlns="http://earth.google.com/kml/2.1">
<Document>
<name>\\SMWDAZEAPP01\kmzfiles\current.kml</name>
<open>0</open>
<Style id='sw_1442837_normal_planned'>
<IconStyle>
<scale>1.0</scale>
<Icon>
<href>http://essentialenergy.com.au/Asset/img/icons/planned-outage-marker.png</href>
</Icon>
<hotSpot x="0" y="0" xunits="fraction" yunits="fraction"/>
</IconStyle>
<PolyStyle>
<colorMode>normal</colorMode>
<fill>1</fill>
<outline>1</outline>
<color>8f000080</color>
</PolyStyle>
<LineStyle>
<colorMode>normal</colorMode>
<color>ff120066</color>
<width>2</width>
</LineStyle>
</Style>
<Style id='sw_1442837_normal_unplanned'>
<IconStyle>
<scale>1.0</scale>
<Icon>
<href>http://essentialenergy.com.au/Asset/img/icons/unplanned-outage-marker.png</href>
</Icon>
<hotSpot x="0" y="0" xunits="fraction" yunits="fraction"/>
</IconStyle>
<PolyStyle>
<colorMode>normal</colorMode>
<fill>1</fill>
<outline>1</outline>
<color>8f000080</color>
</PolyStyle>
<LineStyle>
<colorMode>normal</colorMode>
<color>ff120066</color>
<width>2</width>
</LineStyle>
</Style>
<Folder>
<name><![CDATA[unset]]></name>
<open>0</open>
<description>5 Records</description>
<Placemark id="INCD-300378-q">
<Snippet><![CDATA[INCD-300378-q]]></Snippet>
<styleUrl>#sw_1442837_normal_unplanned</styleUrl>
<description><![CDATA[<h2>INCD-300378-q</h2><div style="overflow: hidden;"><div><span>Time Off:</span>04/10/2026 08:01:59</div><div><span>Est. Time On:</span>04/10/2026 12:30:00</div></div><div><span>No. of Customers affected:</span>42</div><div><span>Reason:</span>We are investigating</div><div><span>Last Updated:</span>04/10/2026 09:09:01</div>]]></description><MultiGeometry>
<Polygon id="external|outage_notification|current_coverage|{3336706,488281250,32541256}">
<extrude>0</extrude>
<tessellate>1</tessellate>
<altitudeMode>clampToGround</altitudeMode>
<outerBoundaryIs>
<LinearRing>
<coordinates>
146.8618038,-29.94579247 146.8617913,-29.94581169 146.8547286,-29.95670886 146.8547203,-29.95672169 146.8547005,-29.95674562 146.8546779,-29.95676754 146.8546528,-29.95678719 146.8546390,-29.95679578 146.8536194,-29.95743261 146.8536000,-29.95744470 146.8535575,-29.95746347 146.8535123,-29.95747637 146.8534653,-29.95748312 146.8534176,-29.95748356 146.8533705,-29.95747767 146.8533249,-29.95746559 146.8532819,-29.95744761 146.8532623,-29.95743587 146.8532427,-29.95742414 146.8532079,-29.95739573 146.8531786,-29.95736305 146.8531553,-29.95732685 146.8531386,-29.95728799 146.8531289,-29.95724737 146.8531265,-29.95720594 146.8531313,-29.95716466 146.8531373,-29.95714459 146.8563173,-29.94647708 146.8563208,-29.94646543 146.8563301,-29.94644275 146.8563416,-29.94642089 146.8563554,-29.94640001 146.8563712,-29.94638026 146.8563890,-29.94636182 146.8564086,-29.94634482 146.8564298,-29.94632941 146.8564411,-29.94632256 146.8591161,-29.94470834 146.8591304,-29.94469977 146.8591608,-29.94468547 146.8591768,-29.94467983 146.8595460,-29.94455002 146.8595620,-29.94454441 146.8595952,-29.94453632 146.8596122,-29.94453389 146.8605826,-29.94439547 146.8606014,-29.94439279 146.8606395,-29.94439147 146.8606775,-29.94439420 146.8607148,-29.94440095 146.8607509,-29.94441163 146.8607852,-29.94442606 146.8608172,-29.94444403 146.8608465,-29.94446528 146.8608595,-29.94447738 146.8617117,-29.94526805 146.8617281,-29.94528330 146.8617552,-29.94531785 146.8617759,-29.94535561 146.8617897,-29.94539570 146.8617930,-29.94541643 146.8618286,-29.94564172 146.8618320,-29.94566358 146.8618307,-29.94570769 146.8618212,-29.94575104 146.8618038,-29.94579247</coordinates>
</LinearRing>
</outerBoundaryIs>
</Polygon>
<Point id="cp_external|outage_notification|current_coverage|{3336706,488281250,32541256}">
<extrude>0</extrude>
<tessellate>1</tessellate>
<altitudeMode>clampToGround</altitudeMode>
<coordinates>
146.8574828,-29.94907905</coordinates>
</Point>
</MultiGeometry>
</Placemark>
<Placemark id="INCD-112214-s">
<Snippet><![CDATA[INCD-112214-s]]></Snippet>
<styleUrl>#sw_1442837_normal_unplanned</styleUrl>
<description><![CDATA[<h2>INCD-112214-s</h2><div style="overflow: hidden;"><div><span>Time Off:</span>04/10/2026 06:42:02</div><div><span>Est. Time On:</span></div></div><div><span>No. of Customers affected:</span>11</div><div><span>Reason:</span>Critical repairs</div><div><span>Last Updated:</span>04/10/2026 09:02:03</div>]]></description><MultiGeometry>
<Polygon id="external|outage_notification|current_coverage|{5655208,0,32541235}">
<extrude>0</extrude>
<tessellate>1</tessellate>
<altitudeMode>clampToGround</altitudeMode>
<outerBoundaryIs>
<LinearRing>
<coordinates>
153.3928519,-28.34437564 153.3928308,-28.34437874 153.3792122,-28.34637711 153.3791961,-28.34637946 153.3791636,-28.34638112 153.3791310,-28.34637969 153.3790988,-28.34637521 153.3790674,-28.34636771 153.3790370,-28.34635729 153.3790081,-28.34634406 153.3789809,-28.34632817 153.3789683,-28.34631899 153.3789558,-28.34630981 153.3789330,-28.34628918 153.3789129,-28.34626653 153.3788956,-28.34624210 153.3788813,-28.34621619 153.3788703,-28.34618907 153.3788625,-28.34616106 153.3788582,-28.34613249 153.3788578,-28.34611808 153.3788416,-28.34555160 153.3788411,-28.34553659 153.3788441,-28.34550666 153.3788507,-28.34547720 153.3788610,-28.34544859 153.3788749,-28.34542115 153.3788921,-28.34539526 153.3789124,-28.34537122 153.3789357,-28.34534932 153.3789486,-28.34533958 153.3868851,-28.33935974 153.3868956,-28.33935187 153.3869180,-28.33933786 153.3869417,-28.33932569 153.3869665,-28.33931546 153.3869923,-28.33930724 153.3870189,-28.33930110 153.3870459,-28.33929710 153.3870733,-28.33929526 153.3871007,-28.33929561 153.3871280,-28.33929813 153.3871549,-28.33930281 153.3871812,-28.33930962 153.3872067,-28.33931849 153.3872312,-28.33932935 153.3872546,-28.33934212 153.3872765,-28.33935668 153.3872867,-28.33936481 153.3929850,-28.34391277 153.3930008,-28.34392545 153.3930283,-28.34395447 153.3930509,-28.34398661 153.3930682,-28.34402122 153.3930798,-28.34405764 153.3930856,-28.34409514 153.3930854,-28.34413299 153.3930793,-28.34417044 153.3930733,-28.34418860 153.3930673,-28.34420675 153.3930496,-28.34424124 153.3930267,-28.34427319 153.3929990,-28.34430200 153.3929670,-28.34432711 153.3929313,-28.34434801 153.3928927,-28.34436429 153.3928519,-28.34437564</coordinates>
</LinearRing>
</outerBoundaryIs>
</Polygon>
<Point id="cp_external|outage_notification|current_coverage|{5655208,0,32541235}">
<extrude>0</extrude>
<tessellate>1</tessellate>
<altitudeMode>clampToGround</altitudeMode>
<coordinates>
153.3858350,-28.34283384</coordinates>
</Point>
</MultiGeometry>
</Placemark>
<Placemark id="INCD-300367-q">
<Snippet><![CDATA[INCD-300367-q]]></Snippet>
<styleUrl>#sw_1442837_normal_unplanned</styleUrl>
<description><![CDATA[<h2>INCD-300367-q</h2><div style="overflow: hidden;"><div><span>Time Off:</span>04/10/2026 07:37:45</div><div><span>Est. Time On:</span>04/10/2026 11:00:00</div></div><div><span>No. of Customers affected:</span>720</div><div><span>Reason:</span>We are investigating</div><div><span>Last Updated:</span>04/10/2026 07:37:45</div>]]></description><MultiGeometry>
<Polygon id="external|outage_notification|current_coverage|{5843750,0,32541107}">
<extrude>0</extrude>
<tessellate>1</tessellate>
<altitudeMode>clampToGround</altitudeMode>
<outerBoundaryIs>
<LinearRing>
<coordinates>
149.1965304,-34.92103590 149.1965132,-34.92105205 149.1564696,-34.95871831 149.1564522,-34.95873468 149.1564115,-34.95876241 149.1563659,-34.95878442 149.1563166,-34.95880015 149.1562908,-34.95880467 148.9911459,-34.98755800 148.9911256,-34.98756153 148.9910841,-34.98756430 148.9910425,-34.98756275 148.9910015,-34.98755689 148.9909816,-34.98755185 148.9641289,-34.98074812 148.9641051,-34.98074208 148.9640603,-34.98072426 148.9640398,-34.98071268 148.9140174,-34.95245125 148.9140027,-34.95244296 148.9139757,-34.95242385 148.9139514,-34.95240246 148.9139300,-34.95237904 148.9139209,-34.95236644 148.9019399,-34.93575645 148.9019296,-34.93574218 148.9019134,-34.93571178 148.9019019,-34.93567998 148.9018951,-34.93564725 148.9018942,-34.93563067 148.8967971,-34.84326243 148.8967961,-34.84324446 148.8967999,-34.84320864 148.8968047,-34.84319110 148.8981087,-34.83838703 148.8981122,-34.83837385 148.8981225,-34.83834821 148.8981359,-34.83832354 148.8981522,-34.83830010 148.8981712,-34.83827810 148.8981928,-34.83825779 148.8982167,-34.83823933 148.8982427,-34.83822295 148.8982567,-34.83821586 149.0134105,-34.77961403 149.0134237,-34.77960731 149.0134514,-34.77959599 149.0134659,-34.77959143 149.0175198,-34.77831516 149.0175334,-34.77831088 149.0175614,-34.77830434 149.0175900,-34.77829987 149.0176190,-34.77829751 149.0176481,-34.77829729 149.0176771,-34.77829919 149.0177058,-34.77830320 149.0177340,-34.77830931 149.0177477,-34.77831337 149.0181797,-34.77844172 149.0181963,-34.77844665 149.0182280,-34.77845938 149.0182429,-34.77846711 149.1198632,-34.83100906 149.1419065,-34.84695933 149.1419252,-34.84697287 149.1419573,-34.84700429 149.1419702,-34.84702181 149.1965463,-34.92073309 149.1965599,-34.92075140 149.1965797,-34.92079110 149.1965917,-34.92083287 149.1965955,-34.92087567 149.1965910,-34.92091843 149.1965784,-34.92096007 149.1965581,-34.92099956 149.1965304,-34.92103590</coordinates>
</LinearRing>
</outerBoundaryIs>
</Polygon>
<Point id="cp_external|outage_notification|current_coverage|{5843750,0,32541107}">
<extrude>0</extrude>
<tessellate>1</tessellate>
<altitudeMode>clampToGround</altitudeMode>
<coordinates>
149.0466941,-34.88475991</coordinates>
</Point>
</MultiGeometry>
</Placemark>
</Folder>
</Document>
</kml>

