{
"type": "FeatureCollection",
"name": "unset",
"crs": { "type": "name", "properties": { "name": "urn:ogc:def:crs:OGC:1.3:CRS84" } },
"features": [
{ "type": "Feature", "properties": { "Name": "", "Description": "<h2>INCD-300054-q</h2><div style=\"overflow: hidden;\"><div><span>Time Off:</span>01/10/2026 17:26:00</div><div><span>Est. Time On:</span></div></div><div><span>No. of Customers affected:</span>99</div><div><span>Reason:</span>We are investigating</div><div><span>Last Updated:</span>01/10/2026 23:21:34</div>" }, "geometry": { "type": "GeometryCollection", "geometries": [ { "type": "Polygon", "coordinates": [ [ [ 153.587961400000012, -28.87328714 ], [ 153.587943200000012, -28.87327611 ], [ 153.5876024, -28.87306945 ], [ 153.587590400000011, -28.87306215 ], [ 153.587568, -28.87304562 ], [ 153.587557800000013, -28.87303646 ], [ 153.5862972, -28.87190757 ], [ 153.5862873, -28.87189869 ], [ 153.5862694, -28.8718794 ], [ 153.586253699999986, -28.87185875 ], [ 153.5862401, -28.87183692 ], [ 153.586234499999989, -28.87182549 ], [ 153.585647599999987, -28.87062875 ], [ 153.5855695, -28.87040754 ], [ 153.5855636, -28.8703906 ], [ 153.585556700000012, -28.87035565 ], [ 153.585556, -28.87033793 ], [ 153.5855525, -28.87025794 ], [ 153.5855516, -28.87023738 ], [ 153.5855569, -28.8701965 ], [ 153.5855631, -28.87017666 ], [ 153.585620299999988, -28.8699922 ], [ 153.585624200000012, -28.86997947 ], [ 153.5856349, -28.86995481 ], [ 153.5856483, -28.86993118 ], [ 153.5856642, -28.86990882 ], [ 153.5856734, -28.86989838 ], [ 153.5857642, -28.869795 ], [ 153.585772600000013, -28.86978537 ], [ 153.5857914, -28.86976752 ], [ 153.585812, -28.86975124 ], [ 153.5858342, -28.86973666 ], [ 153.585857800000014, -28.8697239 ], [ 153.5858826, -28.86971306 ], [ 153.5859084, -28.86970424 ], [ 153.585935, -28.8696975 ], [ 153.5859485, -28.86969521 ], [ 153.587551100000013, -28.86942409 ], [ 153.587566399999986, -28.86942151 ], [ 153.5875974, -28.86941908 ], [ 153.587628599999988, -28.86941946 ], [ 153.5876596, -28.86942262 ], [ 153.58769, -28.86942854 ], [ 153.587719600000014, -28.86943715 ], [ 153.5877481, -28.86944836 ], [ 153.587775099999988, -28.86946206 ], [ 153.5877878, -28.86947008 ], [ 153.5878004, -28.8694781 ], [ 153.5878237, -28.86949633 ], [ 153.5878448, -28.86951654 ], [ 153.5878634, -28.86953854 ], [ 153.587879500000014, -28.8695621 ], [ 153.5878927, -28.86958696 ], [ 153.587902899999989, -28.86961287 ], [ 153.58791020000001, -28.86963957 ], [ 153.5879122, -28.86965317 ], [ 153.5884202, -28.87301877 ], [ 153.5884231, -28.87303805 ], [ 153.5884226, -28.87307695 ], [ 153.588415700000013, -28.87311538 ], [ 153.588402699999989, -28.87315253 ], [ 153.5883837, -28.87318765 ], [ 153.5883591, -28.87322001 ], [ 153.5883296, -28.87324892 ], [ 153.5882956, -28.8732738 ], [ 153.5882767, -28.87328396 ], [ 153.5882579, -28.87329412 ], [ 153.5882173, -28.87330947 ], [ 153.5881746, -28.87331953 ], [ 153.5881307, -28.87332408 ], [ 153.5880866, -28.87332305 ], [ 153.588043, -28.87331644 ], [ 153.588001, -28.87330438 ], [ 153.587961400000012, -28.87328714 ] ] ] }, { "type": "Point", "coordinates": [ 153.5869491, -28.87105244 ] } ] } },
{ "type": "Feature", "properties": { "Name": "", "Description": "<h2>INCD-43623-w</h2><div style=\"overflow: hidden;\"><div><span>Time Off:</span>01/10/2026 20:59:53</div><div><span>Est. Time On:</span>02/10/2026 01:00:00</div></div><div><span>No. of Customers affected:</span>48</div><div><span>Reason:</span>We are investigating</div><div><span>Last Updated:</span>01/10/2026 20:59:53</div>" }, "geometry": { "type": "GeometryCollection", "geometries": [ { "type": "Polygon", "coordinates": [ [ [ 149.237505700000014, -35.41581995 ], [ 149.237498, -35.41583633 ], [ 149.2371786, -35.41651468 ], [ 149.237173500000011, -35.41652547 ], [ 149.2371612, -35.41654626 ], [ 149.237146700000011, -35.41656611 ], [ 149.2371302, -35.41658488 ], [ 149.2371118, -35.41660242 ], [ 149.237091600000014, -35.4166186 ], [ 149.2370698, -35.41663332 ], [ 149.237046600000014, -35.41664647 ], [ 149.2370343, -35.41665221 ], [ 149.2365106, -35.41689713 ], [ 149.236492700000014, -35.41690552 ], [ 149.2364545, -35.41691851 ], [ 149.236414599999989, -35.41692751 ], [ 149.2363737, -35.41693237 ], [ 149.2363324, -35.41693301 ], [ 149.2362913, -35.41692942 ], [ 149.236251, -35.41692168 ], [ 149.2362123, -35.41690988 ], [ 149.236194, -35.41690205 ], [ 149.234750600000012, -35.41628545 ], [ 149.234737599999988, -35.4162799 ], [ 149.2347129, -35.41626697 ], [ 149.234689800000012, -35.41625229 ], [ 149.23466830000001, -35.41623598 ], [ 149.234648600000014, -35.41621819 ], [ 149.234631, -35.41619904 ], [ 149.2346154, -35.41617868 ], [ 149.234602200000012, -35.41615728 ], [ 149.2345913, -35.41613501 ], [ 149.2345829, -35.41611203 ], [ 149.234577, -35.41608853 ], [ 149.2345736, -35.4160647 ], [ 149.234572899999989, -35.41604072 ], [ 149.2345747, -35.41601677 ], [ 149.234579200000013, -35.41599306 ], [ 149.2345861, -35.41596976 ], [ 149.2345909, -35.4159584 ], [ 149.2352296, -35.41442686 ], [ 149.2352357, -35.41441229 ], [ 149.235251799999986, -35.41438447 ], [ 149.2352717, -35.41435833 ], [ 149.235295, -35.4143342 ], [ 149.2353216, -35.4143124 ], [ 149.235351, -35.41429321 ], [ 149.2353829, -35.41427688 ], [ 149.2354168, -35.41426361 ], [ 149.2354346, -35.41425859 ], [ 149.235452400000014, -35.41425358 ], [ 149.2354891, -35.41424692 ], [ 149.2355265, -35.41424372 ], [ 149.2355641, -35.41424402 ], [ 149.2356015, -35.4142478 ], [ 149.235638, -35.41425503 ], [ 149.2356733, -35.41426561 ], [ 149.235707, -35.4142794 ], [ 149.2357227, -35.41428782 ], [ 149.2362994, -35.41459598 ], [ 149.236499400000014, -35.41471339 ], [ 149.2366982, -35.41484542 ], [ 149.236894, -35.41499745 ], [ 149.23744880000001, -35.41557131 ], [ 149.237462099999988, -35.41558507 ], [ 149.237484200000011, -35.41561518 ], [ 149.2375013, -35.41564738 ], [ 149.2375131, -35.41568112 ], [ 149.237519600000013, -35.41571583 ], [ 149.237520499999988, -35.41575094 ], [ 149.237515800000011, -35.41578584 ], [ 149.237505700000014, -35.41581995 ] ] ] }, { "type": "Point", "coordinates": [ 149.236039799999986, -35.4156459 ] } ] } }
]
}
